$$SOE
2460728.500000000, A.D. 2025-Feb-22 00:00:00.0000, -3.429736689071168E+08, -1.037743678289307E+08, 2.060654391623668E+07,
2460735.500000000, A.D. 2025-Mar-01 00:00:00.0000, -3.374565610342567E+08, -1.135561173973914E+08, 2.097916926870530E+07,
2460742.500000000, A.D. 2025-Mar-08 00:00:00.0000, -3.315784096881339E+08, -1.232163856468184E+08, 2.132934664832040E+07,
2460749.500000000, A.D. 2025-Mar-15 00:00:00.0000, -3.253385707600031E+08, -1.327422582263309E+08, 2.165625520545068E+07,
2460756.500000000, A.D. 2025-Mar-22 00:00:00.0000, -3.187367539880132E+08, -1.421204437628435E+08, 2.195906591318734E+07,
2460763.500000000, A.D. 2025-Mar-29 00:00:00.0000, -3.117730555059119E+08, -1.513372695251279E+08, 2.223694243632033E+07,
2460770.500000000, A.D. 2025-Apr-05 00:00:00.0000, -3.044479910676773E+08, -1.603786775588368E+08, 2.248904210093717E+07,
2460777.500000000, A.D. 2025-Apr-12 00:00:00.0000, -2.967625319621223E+08, -1.692302214369368E+08, 2.271451716960321E+07,
2460784.500000000, A.D. 2025-Apr-19 00:00:00.0000, -2.887181438723763E+08, -1.778770647877422E+08, 2.291251638689099E+07,
2460791.500000000, A.D. 2025-Apr-26 00:00:00.0000, -2.803168284579427E+08, -1.863039821246549E+08, 2.308218677378950E+07,
2460798.500000000, A.D. 2025-May-03 00:00:00.0000, -2.715611675778686E+08, -1.944953623216457E+08, 2.322267568377487E+07,
2460805.500000000, A.D. 2025-May-10 00:00:00.0000, -2.624543701379796E+08, -2.024352151292355E+08, 2.333313314246736E+07,
2460812.500000000, A.D. 2025-May-17 00:00:00.0000, -2.530003215079834E+08, -2.101071812128943E+08, 2.341271449005501E+07,
2460819.500000000, A.D. 2025-May-24 00:00:00.0000, -2.432036352769233E+08, -2.174945462453887E+08, 2.346058333343036E+07,
2460826.500000000, A.D. 2025-May-31 00:00:00.0000, -2.330697068204492E+08, -2.245802592551509E+08, 2.347591482309187E+07,
2460833.500000000, A.D. 2025-Jun-07 00:00:00.0000, -2.226047689101326E+08, -2.313469545735471E+08, 2.345789941761354E+07,
2460840.500000000, A.D. 2025-Jun-14 00:00:00.0000, -2.118159514850209E+08, -2.377769786280735E+08, 2.340574732411427E+07,
2460847.500000000, A.D. 2025-Jun-21 00:00:00.0000, -2.007113440414968E+08, -2.438524254646026E+08, 2.331869325981826E+07,
2460854.500000000, A.D. 2025-Jun-28 00:00:00.0000, -1.893000570942124E+08, -2.495551798702335E+08, 2.319600141391252E+07,
2460861.500000000, A.D. 2025-Jul-05 00:00:00.0000, -1.775922836985020E+08, -2.548669665867257E+08, 2.303697094347881E+07,
2460868.500000000, A.D. 2025-Jul-12 00:00:00.0000, -1.655993615766223E+08, -2.597694070634667E+08, 2.284094205997747E+07,
2460875.500000000, A.D. 2025-Jul-19 00:00:00.0000, -1.533338348746124E+08, -2.642440849516335E+08, 2.260730264775641E+07,
2460882.500000000, A.D. 2025-Jul-26 00:00:00.0000, -1.408095144102686E+08, -2.682726209893785E+08, 2.233549538786101E+07,
2460889.500000000, A.D. 2025-Aug-02 00:00:00.0000, -1.280415352653236E+08, -2.718367577946483E+08, 2.202502537063988E+07,
2460896.500000000, A.D. 2025-Aug-09 00:00:00.0000, -1.150464104600683E+08, -2.749184550319954E+08, 2.167546817053176E+07,
2460903.500000000, A.D. 2025-Aug-16 00:00:00.0000, -1.018420792329745E+08, -2.774999953459624E+08, 2.128647833359937E+07,
2460910.500000000, A.D. 2025-Aug-23 00:00:00.0000, -8.844794807044592E+07, -2.795641012155983E+08, 2.085779819849150E+07,
2460917.500000000, A.D. 2025-Aug-30 00:00:00.0000, -7.488492244348566E+07, -2.810940619897232E+08, 2.038926700661208E+07,
2460924.500000000, A.D. 2025-Sep-06 00:00:00.0000, -6.117542882088835E+07, -2.820738698346533E+08, 1.988083042032830E+07,
2460931.500000000, A.D. 2025-Sep-13 00:00:00.0000, -4.734342667255934E+07, -2.824883665228373E+08, 1.933255028403565E+07,
2460938.500000000, A.D. 2025-Sep-20 00:00:00.0000, -3.341440516303717E+07, -2.823234018282543E+08, 1.874461405516028E+07,
2460945.500000000, A.D. 2025-Sep-27 00:00:00.0000, -1.941536143443613E+07, -2.815659991745979E+08, 1.811734390162115E+07,
2460952.500000000, A.D. 2025-Oct-04 00:00:00.0000, -5.374760499757853E+06, -2.802045263504685E+08, 1.745120551138760E+07,
2460959.500000000, A.D. 2025-Oct-11 00:00:00.0000, 8.677524754975412E+06, -2.782288701593844E+08, 1.674681636644316E+07,
2460966.500000000, A.D. 2025-Oct-18 00:00:00.0000, 2.271029540959118E+07, -2.756306127656568E+08, 1.600495320940967E+07,
2460973.500000000, A.D. 2025-Oct-25 00:00:00.0000, 3.669113168920568E+07, -2.724032067782755E+08, 1.522655845303749E+07,
2460980.500000000, A.D. 2025-Nov-01 00:00:00.0000, 5.058652247824746E+07, -2.685421457044811E+08, 1.441274528321108E+07,
2460987.500000000, A.D. 2025-Nov-08 00:00:00.0000, 6.436201965151073E+07, -2.640451261044386E+08, 1.356480120273077E+07,
2460994.500000000, A.D. 2025-Nov-15 00:00:00.0000, 7.798241720797478E+07, -2.589121975424693E+08, 1.268418976120539E+07,
2461001.500000000, A.D. 2025-Nov-22 00:00:00.0000, 9.141195474720106E+07, -2.531458959902194E+08, 1.177255023538390E+07,
2461008.500000000, A.D. 2025-Nov-29 00:00:00.0000, 1.046145435069816E+08, -2.467513553884895E+08, 1.083169517882679E+07,
2461015.500000000, A.D. 2025-Dec-06 00:00:00.0000, 1.175540102541352E+08, -2.397363934654170E+08, 9.863605890546024E+06,
2461022.500000000, A.D. 2025-Dec-13 00:00:00.0000, 1.301943562265376E+08, -2.321115714343700E+08, 8.870425390167370E+06,
2461029.500000000, A.D. 2025-Dec-20 00:00:00.0000, 1.425000306187295E+08, -2.238902232804378E+08, 7.854448627640471E+06,
2461036.500000000, A.D. 2025-Dec-27 00:00:00.0000, 1.544362128489020E+08, -2.150884494354520E+08, 6.818110272679925E+06,
2461043.500000000, A.D. 2026-Jan-03 00:00:00.0000, 1.659690968947215E+08, -2.057250736629441E+08, 5.763970276161924E+06,
2461050.500000000, A.D. 2026-Jan-10 00:00:00.0000, 1.770661721571131E+08, -1.958215629865202E+08, 4.694697321540982E+06,
2461057.500000000, A.D. 2026-Jan-17 00:00:00.0000, 1.876964952354288E+08, -1.854019109557533E+08, 3.613050393682852E+06,
2461064.500000000, A.D. 2026-Jan-24 00:00:00.0000, 1.978309468612965E+08, -1.744924855250223E+08, 2.521858781433426E+06,
2461071.500000000, A.D. 2026-Jan-31 00:00:00.0000, 2.074424684271844E+08, -1.631218439306248E+08, 1.424000886071905E+06,
2461078.500000000, A.D. 2026-Feb-07 00:00:00.0000, 2.165062730581545E+08, -1.513205179992401E+08, 3.223822388155162E+05,
2461085.500000000, A.D. 2026-Feb-14 00:00:00.0000, 2.250000270816795E+08, -1.391207741518141E+08, -7.800868571961448E+05,
2461092.500000000, A.D. 2026-Feb-21 00:00:00.0000, 2.329039988110296E+08, -1.265563525170135E+08, -1.880513592997856E+06,
2461099.500000000, A.D. 2026-Feb-28 00:00:00.0000, 2.402011711211186E+08, -1.136621895682857E+08, -2.976044182164483E+06,
2461106.500000000, A.D. 2026-Mar-07 00:00:00.0000, 2.468773143842269E+08, -1.004741321274725E+08, -4.063884199466936E+06,
2461113.500000000, A.D. 2026-Mar-14 00:00:00.0000, 2.529210222420118E+08, -8.702865100957261E+07, -5.141317799029194E+06,
2461120.500000000, A.D. 2026-Mar-21 00:00:00.0000, 2.583237127623937E+08, -7.336255716980623E+07, -6.205725418358337E+06,
2461127.500000000, A.D. 2026-Mar-28 00:00:00.0000, 2.630795947268755E+08, -5.951272470430402E+07, -7.254599443144049E+06,
2461134.500000000, A.D. 2026-Apr-04 00:00:00.0000, 2.671856010558824E+08, -4.551582649720591E+07, -8.285557668762563E+06,
2461141.500000000, A.D. 2026-Apr-11 00:00:00.0000, 2.706412929520279E+08, -3.140808701308561E+07, -9.296354496149529E+06,
2461148.500000000, A.D. 2026-Apr-18 00:00:00.0000, 2.734487387422807E+08, -1.722505560176935E+07, -1.028488982924037E+07,
2461155.500000000, A.D. 2026-Apr-25 00:00:00.0000, 2.756123716171960E+08, -3.001402836488639E+06, -1.124921569314598E+07,
2461162.500000000, A.D. 2026-May-02 00:00:00.0000, 2.771388306019945E+08, 1.122925837770771E+07, -1.218754065141620E+07,
2461169.500000000, A.D. 2026-May-09 00:00:00.0000, 2.780367891755039E+08, 2.543452594432294E+07, -1.309823216069532E+07,
2461176.500000000, A.D. 2026-May-16 00:00:00.0000, 2.783167760436923E+08, 3.958333591424835E+07, -1.397981704631237E+07,
2461183.500000000, A.D. 2026-May-23 00:00:00.0000, 2.779909919645760E+08, 5.364606550738533E+07, -1.483098020711257E+07,
2461190.500000000, A.D. 2026-May-30 00:00:00.0000, 2.770731240504115E+08, 6.759461315357764E+07, -1.565056153706555E+07,
2461197.500000000, A.D. 2026-Jun-06 00:00:00.0000, 2.755781603342961E+08, 8.140245371464208E+07, -1.643755151891281E+07,
2461204.500000000, A.D. 2026-Jun-13 00:00:00.0000, 2.735222108957378E+08, 9.504467083879013E+07, -1.719108602899879E+07,
2461211.500000000, A.D. 2026-Jun-20 00:00:00.0000, 2.709223372038422E+08, 1.084979713598473E+08, -1.791044028038963E+07,
2461218.500000000, A.D. 2026-Jun-27 00:00:00.0000, 2.677963896969341E+08, 1.217406835199674E+08, -1.859502197787394E+07,
2461225.500000000, A.D. 2026-Jul-04 00:00:00.0000, 2.641628548901239E+08, 1.347527404061552E+08, -1.924436393544183E+07,
2461232.500000000, A.D. 2026-Jul-11 00:00:00.0000, 2.600407131627608E+08, 1.475156506140489E+08, -1.985811636008721E+07,
2461239.500000000, A.D. 2026-Jul-18 00:00:00.0000, 2.554493078660094E+08, 1.600124582365638E+08, -2.043603895887963E+07,
2461246.500000000, A.D. 2026-Jul-25 00:00:00.0000, 2.504082260190576E+08, 1.722276941372289E+08, -2.097799300202098E+07,
2461253.500000000, A.D. 2026-Aug-01 00:00:00.0000, 2.449371906306331E+08, 1.841473202732916E+08, -2.148393346131145E+07,
2461260.500000000, A.D. 2026-Aug-08 00:00:00.0000, 2.390559646414374E+08, 1.957586686834565E+08, -2.195390133916069E+07,
2461267.500000000, A.D. 2026-Aug-15 00:00:00.0000, 2.327842665199837E+08, 2.070503770656831E+08, -2.238801626491584E+07,
2461274.500000000, A.D. 2026-Aug-22 00:00:00.0000, 2.261416962350869E+08, 2.180123234567765E+08, -2.278646924736397E+07,
2461281.500000000, A.D. 2026-Aug-29 00:00:00.0000, 2.191476686998385E+08, 2.286355597670684E+08, -2.314951552747307E+07,
2461288.500000000, A.D. 2026-Sep-05 00:00:00.0000, 2.118213561635866E+08, 2.389122422762190E+08, -2.347746799372098E+07,
2461295.500000000, A.D. 2026-Sep-12 00:00:00.0000, 2.041816413170851E+08, 2.488355623887620E+08, -2.377069120358175E+07,
$$EOE